start=new Date('2023-02-04T00:00:00.000Z').valueOf();
sats=[{"ELEMENT_SET_NO":"999","FILE":"3770323","TLE_LINE2":"2 53910  53.2192 348.9915 0001064  84.1663 275.9451 15.08854192 21166","SEMIMAJOR_AXIS":"6917.837","RCS_SIZE":"LARGE","MEAN_MOTION_DOT":"0.00001019","DECAY_DATE":null,"CLASSIFICATION_TYPE":"U","MEAN_ANOMALY":"275.9451","EPHEMERIS_TYPE":"0","TLE_LINE1":"1 53910U 22119AA  23034.23448087  .00001019  00000-0  82095-4 0  9990","REF_FRAME":"TEME","APOAPSIS":"540.438","OBJECT_NAME":"STARLINK-5056","PERIOD":"95.437","RA_OF_ASC_NODE":"348.9915","EPOCH":"2023-02-03T05:37:39.147168","GP_ID":"224313964","SITE":"AFETR","MEAN_ELEMENT_THEORY":"SGP4","COUNTRY_CODE":"US","MEAN_MOTION":"15.08854192","MEAN_MOTION_DDOT":"0.0000000000000","PERIAPSIS":"538.966","CENTER_NAME":"EARTH","ECCENTRICITY":"0.00010640","NORAD_CAT_ID":"53910","TIME_SYSTEM":"UTC","REV_AT_EPOCH":"2116","ARG_OF_PERICENTER":"84.1663","LAUNCH_DATE":"2022-09-24","OBJECT_ID":"2022-119AA","OBJECT_TYPE":"PAYLOAD","INCLINATION":"53.2192","BSTAR":"0.00008209500000"},{"PERIOD":"95.437","RA_OF_ASC_NODE":"348.7560","REF_FRAME":"TEME","TLE_LINE1":"1 53911U 22119AB  23034.31178391  .00000750  00000-0  65172-4 0  9996","EPHEMERIS_TYPE":"0","APOAPSIS":"540.461","OBJECT_NAME":"STARLINK-5048","DECAY_DATE":null,"MEAN_ANOMALY":"274.5044","CLASSIFICATION_TYPE":"U","FILE":"3770323","ELEMENT_SET_NO":"999","MEAN_MOTION_DOT":"0.00000750","RCS_SIZE":"LARGE","SEMIMAJOR_AXIS":"6917.840","TLE_LINE2":"2 53911  53.2196 348.7560 0001092  85.6073 274.5044 15.08853105 21174","LAUNCH_DATE":"2022-09-24","ARG_OF_PERICENTER":"85.6073","REV_AT_EPOCH":"2117","BSTAR":"0.00006517200000","INCLINATION":"53.2196","OBJECT_ID":"2022-119AB","OBJECT_TYPE":"PAYLOAD","ECCENTRICITY":"0.00010920","TIME_SYSTEM":"UTC","NORAD_CAT_ID":"53911","MEAN_MOTION_DDOT":"0.0000000000000","MEAN_MOTION":"15.08853105","CENTER_NAME":"EARTH","PERIAPSIS":"538.950","GP_ID":"224314214","MEAN_ELEMENT_THEORY":"SGP4","SITE":"AFETR","EPOCH":"2023-02-03T07:28:58.129824","COUNTRY_CODE":"US"},{"OBJECT_NAME":"STARLINK-5059","APOAPSIS":"540.542","TLE_LINE1":"1 53912U 22119AC  23034.26019572  .00004850  00000-0  32249-3 0  9999","EPHEMERIS_TYPE":"0","REF_FRAME":"TEME","RA_OF_ASC_NODE":"348.4510","PERIOD":"95.437","SEMIMAJOR_AXIS":"6917.836","TLE_LINE2":"2 53912  53.2192 348.4510 0001215  71.7210 288.3914 15.08854475 21179","MEAN_MOTION_DOT":"0.00004850","RCS_SIZE":"LARGE","FILE":"3770323","ELEMENT_SET_NO":"999","CLASSIFICATION_TYPE":"U","MEAN_ANOMALY":"288.3914","DECAY_DATE":null,"NORAD_CAT_ID":"53912","TIME_SYSTEM":"UTC","ECCENTRICITY":"0.00012150","OBJECT_TYPE":"PAYLOAD","OBJECT_ID":"2022-119AC","BSTAR":"0.00032249000000","INCLINATION":"53.2192","REV_AT_EPOCH":"2117","ARG_OF_PERICENTER":"71.7210","LAUNCH_DATE":"2022-09-24","COUNTRY_CODE":"US","GP_ID":"224315464","MEAN_ELEMENT_THEORY":"SGP4","SITE":"AFETR","EPOCH":"2023-02-03T06:14:40.910208","CENTER_NAME":"EARTH","PERIAPSIS":"538.861","MEAN_MOTION":"15.08854475","MEAN_MOTION_DDOT":"0.0000000000000"},{"OBJECT_NAME":"STARLINK-5053","APOAPSIS":"540.775","TLE_LINE1":"1 53913U 22119AD  23034.69079974  .00000034  00000-0  20236-4 0  9993","EPHEMERIS_TYPE":"0","REF_FRAME":"TEME","RA_OF_ASC_NODE":"346.8598","PERIOD":"95.438","SEMIMAJOR_AXIS":"6917.883","TLE_LINE2":"2 53913  53.2185 346.8598 0001484 108.5189 251.5965 15.08839174 21236","MEAN_MOTION_DOT":"0.00000034","RCS_SIZE":"LARGE","FILE":"3770748","ELEMENT_SET_NO":"999","CLASSIFICATION_TYPE":"U","MEAN_ANOMALY":"251.5965","DECAY_DATE":null,"NORAD_CAT_ID":"53913","TIME_SYSTEM":"UTC","ECCENTRICITY":"0.00014840","OBJECT_TYPE":"PAYLOAD","OBJECT_ID":"2022-119AD","BSTAR":"0.00002023600000","INCLINATION":"53.2185","REV_AT_EPOCH":"2123","LAUNCH_DATE":"2022-09-24","ARG_OF_PERICENTER":"108.5189","COUNTRY_CODE":"US","GP_ID":"224350718","SITE":"AFETR","MEAN_ELEMENT_THEORY":"SGP4","EPOCH":"2023-02-03T16:34:45.097536","CENTER_NAME":"EARTH","PERIAPSIS":"538.721","MEAN_MOTION":"15.08839174","MEAN_MOTION_DDOT":"0.0000000000000"},{"OBJECT_NAME":"STARLINK-5040","APOAPSIS":"540.397","REF_FRAME":"TEME","TLE_LINE1":"1 53914U 22119AE  23034.28967050  .00008054  00000-0  52328-3 0  9996","EPHEMERIS_TYPE":"0","RA_OF_ASC_NODE":"348.6199","PERIOD":"95.436","MEAN_MOTION_DOT":"0.00008054","RCS_SIZE":"LARGE","SEMIMAJOR_AXIS":"6917.828","TLE_LINE2":"2 53914  53.2177 348.6199 0001018  98.7874 261.3234 15.08857166 21171","FILE":"3770323","ELEMENT_SET_NO":"999","MEAN_ANOMALY":"261.3234","CLASSIFICATION_TYPE":"U","DECAY_DATE":null,"TIME_SYSTEM":"UTC","NORAD_CAT_ID":"53914","ECCENTRICITY":"0.00010180","BSTAR":"0.00052328000000","INCLINATION":"53.2177","OBJECT_ID":"2022-119AE","OBJECT_TYPE":"PAYLOAD","LAUNCH_DATE":"2022-09-24","ARG_OF_PERICENTER":"98.7874","REV_AT_EPOCH":"2117","COUNTRY_CODE":"US","MEAN_ELEMENT_THEORY":"SGP4","GP_ID":"224314464","SITE":"AFETR","EPOCH":"2023-02-03T06:57:07.531200","CENTER_NAME":"EARTH","PERIAPSIS":"538.989","MEAN_MOTION_DDOT":"0.0000000000000","MEAN_MOTION":"15.08857166"},{"ELEMENT_SET_NO":"999","FILE":"3770748","RCS_SIZE":"LARGE","MEAN_MOTION_DOT":"0.00000085","TLE_LINE2":"2 53915  53.2200 346.3359 0001353  88.6393 271.4754 15.08832695 21256","SEMIMAJOR_AXIS":"6917.903","DECAY_DATE":null,"MEAN_ANOMALY":"271.4754","CLASSIFICATION_TYPE":"U","REF_FRAME":"TEME","EPHEMERIS_TYPE":"0","TLE_LINE1":"1 53915U 22119AF  23034.83433800  .00000085  00000-0  23437-4 0  9995","APOAPSIS":"540.704","OBJECT_NAME":"STARLINK-5017","PERIOD":"95.438","RA_OF_ASC_NODE":"346.3359","EPOCH":"2023-02-03T20:01:26.803200","MEAN_ELEMENT_THEORY":"SGP4","GP_ID":"224349719","SITE":"AFETR","COUNTRY_CODE":"US","MEAN_MOTION_DDOT":"0.0000000000000","MEAN_MOTION":"15.08832695","PERIAPSIS":"538.832","CENTER_NAME":"EARTH","ECCENTRICITY":"0.00013530","TIME_SYSTEM":"UTC","NORAD_CAT_ID":"53915","ARG_OF_PERICENTER":"88.6393","LAUNCH_DATE":"2022-09-24","REV_AT_EPOCH":"2125","INCLINATION":"53.2200","BSTAR":"0.00002343700000","OBJECT_TYPE":"PAYLOAD","OBJECT_ID":"2022-119AF"},{"COUNTRY_CODE":"US","EPOCH":"2023-02-04T00:00:00.999648","SITE":"AFETR","GP_ID":"224349969","MEAN_ELEMENT_THEORY":"SGP4","PERIAPSIS":"504.795","CENTER_NAME":"EARTH","MEAN_MOTION":"15.20024486","MEAN_MOTION_DDOT":"0.0000000000000","NORAD_CAT_ID":"53916","TIME_SYSTEM":"UTC","ECCENTRICITY":"0.00014140","OBJECT_TYPE":"PAYLOAD","OBJECT_ID":"2022-119AG","INCLINATION":"53.2160","BSTAR":"-0.04593900000000","REV_AT_EPOCH":"130","ARG_OF_PERICENTER":"86.8684","LAUNCH_DATE":"2022-09-24","TLE_LINE2":"2 53916  53.2160 325.4901 0001414  86.8684 183.2872 15.20024486  1304","SEMIMAJOR_AXIS":"6883.904","RCS_SIZE":"LARGE","MEAN_MOTION_DOT":"-0.00928265","ELEMENT_SET_NO":"999","FILE":"3770748","CLASSIFICATION_TYPE":"U","MEAN_ANOMALY":"183.2872","DECAY_DATE":null,"OBJECT_NAME":"STARLINK-5051","APOAPSIS":"506.742","EPHEMERIS_TYPE":"0","TLE_LINE1":"1 53916U 22119AG  23035.00001157 -.00928265  00000-0 -45939-1 0  9991","REF_FRAME":"TEME","RA_OF_ASC_NODE":"325.4901","PERIOD":"94.735"},{"TLE_LINE1":"1 53917U 22119AH  23034.29704111  .00012071  00000-0  77473-3 0  9999","EPHEMERIS_TYPE":"0","REF_FRAME":"TEME","OBJECT_NAME":"STARLINK-5036","APOAPSIS":"540.598","PERIOD":"95.436","RA_OF_ASC_NODE":"348.6696","FILE":"3770323","ELEMENT_SET_NO":"999","SEMIMAJOR_AXIS":"6917.813","TLE_LINE2":"2 53917  53.2192 348.6696 0001331  81.0517 279.0626 15.08862190 21174","MEAN_MOTION_DOT":"0.00012071","RCS_SIZE":"LARGE","DECAY_DATE":null,"CLASSIFICATION_TYPE":"U","MEAN_ANOMALY":"279.0626","ECCENTRICITY":"0.00013310","NORAD_CAT_ID":"53917","TIME_SYSTEM":"UTC","REV_AT_EPOCH":"2117","LAUNCH_DATE":"2022-09-24","ARG_OF_PERICENTER":"81.0517","OBJECT_ID":"2022-119AH","OBJECT_TYPE":"PAYLOAD","BSTAR":"0.00077473000000","INCLINATION":"53.2192","GP_ID":"224315216","SITE":"AFETR","MEAN_ELEMENT_THEORY":"SGP4","EPOCH":"2023-02-03T07:07:44.351904","COUNTRY_CODE":"US","MEAN_MOTION":"15.08862190","MEAN_MOTION_DDOT":"0.0000000000000","CENTER_NAME":"EARTH","PERIAPSIS":"538.757"},{"RA_OF_ASC_NODE":"348.8939","PERIOD":"95.437","APOAPSIS":"540.529","OBJECT_NAME":"STARLINK-5012","TLE_LINE1":"1 53918U 22119AJ  23034.21974414  .00002251  00000-0  15941-3 0  9998","EPHEMERIS_TYPE":"0","REF_FRAME":"TEME","CLASSIFICATION_TYPE":"U","MEAN_ANOMALY":"267.8407","DECAY_DATE":null,"SEMIMAJOR_AXIS":"6917.835","TLE_LINE2":"2 53918  53.2172 348.8939 0001198  92.2722 267.8407 15.08854818 21167","MEAN_MOTION_DOT":"0.00002251","RCS_SIZE":"LARGE","FILE":"3770323","ELEMENT_SET_NO":"999","OBJECT_ID":"2022-119AJ","OBJECT_TYPE":"PAYLOAD","BSTAR":"0.00015941000000","INCLINATION":"53.2172","REV_AT_EPOCH":"2116","ARG_OF_PERICENTER":"92.2722","LAUNCH_DATE":"2022-09-24","NORAD_CAT_ID":"53918","TIME_SYSTEM":"UTC","ECCENTRICITY":"0.00011980","CENTER_NAME":"EARTH","PERIAPSIS":"538.871","MEAN_MOTION":"15.08854818","MEAN_MOTION_DDOT":"0.0000000000000","COUNTRY_CODE":"US","SITE":"AFETR","GP_ID":"224313965","MEAN_ELEMENT_THEORY":"SGP4","EPOCH":"2023-02-03T05:16:25.893696"},{"REF_FRAME":"TEME","EPHEMERIS_TYPE":"0","TLE_LINE1":"1 53919U 22119AK  23034.28228878  .00001792  00000-0  13060-3 0  9991","APOAPSIS":"540.698","OBJECT_NAME":"STARLINK-5023","PERIOD":"95.436","RA_OF_ASC_NODE":"348.5724","ELEMENT_SET_NO":"999","FILE":"3770323","RCS_SIZE":"LARGE","MEAN_MOTION_DOT":"0.00001792","TLE_LINE2":"2 53919  53.2183 348.5724 0001459  92.2411 267.8748 15.08858577 21179","SEMIMAJOR_AXIS":"6917.824","DECAY_DATE":null,"MEAN_ANOMALY":"267.8748","CLASSIFICATION_TYPE":"U","ECCENTRICITY":"0.00014590","TIME_SYSTEM":"UTC","NORAD_CAT_ID":"53919","LAUNCH_DATE":"2022-09-24","ARG_OF_PERICENTER":"92.2411","REV_AT_EPOCH":"2117","INCLINATION":"53.2183","BSTAR":"0.00013060000000","OBJECT_ID":"2022-119AK","OBJECT_TYPE":"PAYLOAD","EPOCH":"2023-02-03T06:46:29.750592","SITE":"AFETR","GP_ID":"224314215","MEAN_ELEMENT_THEORY":"SGP4","COUNTRY_CODE":"US","MEAN_MOTION_DDOT":"0.0000000000000","MEAN_MOTION":"15.08858577","PERIAPSIS":"538.679","CENTER_NAME":"EARTH"}];
